<?xml version="1.0" encoding="UTF-8"?>
<ndm xmlns:xsi="http://www.w3.org/2001/XMLSchema-instance" xsi:noNamespaceSchemaLocation="https://sanaregistry.org/r/ndmxml_unqualified/ndmxml-2.0.0-master-2.0.xsd">
<omm id="CCSDS_OMM_VERS" version="2.0">
<header><CREATION_DATE/><ORIGINATOR/></header><body><segment><metadata><OBJECT_NAME>ONEWEB-0171</OBJECT_NAME><OBJECT_ID>2021-025AE</OBJECT_ID><CENTER_NAME>EARTH</CENTER_NAME><REF_FRAME>TEME</REF_FRAME><TIME_SYSTEM>UTC</TIME_SYSTEM><MEAN_ELEMENT_THEORY>SGP4</MEAN_ELEMENT_THEORY></metadata><data><meanElements><EPOCH>2025-02-09T18:12:28.877184</EPOCH><MEAN_MOTION>13.13468796</MEAN_MOTION><ECCENTRICITY>.0001973</ECCENTRICITY><INCLINATION>87.8880</INCLINATION><RA_OF_ASC_NODE>58.1492</RA_OF_ASC_NODE><ARG_OF_PERICENTER>93.1381</ARG_OF_PERICENTER><MEAN_ANOMALY>266.9974</MEAN_ANOMALY></meanElements><tleParameters><EPHEMERIS_TYPE>0</EPHEMERIS_TYPE><CLASSIFICATION_TYPE>U</CLASSIFICATION_TYPE><NORAD_CAT_ID>48070</NORAD_CAT_ID><ELEMENT_SET_NO>999</ELEMENT_SET_NO><REV_AT_EPOCH>18897</REV_AT_EPOCH><BSTAR>-.64336E-3</BSTAR><MEAN_MOTION_DOT>-.222E-5</MEAN_MOTION_DOT><MEAN_MOTION_DDOT>0</MEAN_MOTION_DDOT></tleParameters></data></segment></body></omm>
<omm id="CCSDS_OMM_VERS" version="2.0">
<header><CREATION_DATE/><ORIGINATOR/></header><body><segment><metadata><OBJECT_NAME>ONEWEB-0172</OBJECT_NAME><OBJECT_ID>2021-025AF</OBJECT_ID><CENTER_NAME>EARTH</CENTER_NAME><REF_FRAME>TEME</REF_FRAME><TIME_SYSTEM>UTC</TIME_SYSTEM><MEAN_ELEMENT_THEORY>SGP4</MEAN_ELEMENT_THEORY></metadata><data><meanElements><EPOCH>2025-02-09T23:11:51.905472</EPOCH><MEAN_MOTION>13.13470169</MEAN_MOTION><ECCENTRICITY>.0002027</ECCENTRICITY><INCLINATION>87.8880</INCLINATION><RA_OF_ASC_NODE>58.0742</RA_OF_ASC_NODE><ARG_OF_PERICENTER>90.2508</ARG_OF_PERICENTER><MEAN_ANOMALY>269.8853</MEAN_ANOMALY></meanElements><tleParameters><EPHEMERIS_TYPE>0</EPHEMERIS_TYPE><CLASSIFICATION_TYPE>U</CLASSIFICATION_TYPE><NORAD_CAT_ID>48071</NORAD_CAT_ID><ELEMENT_SET_NO>999</ELEMENT_SET_NO><REV_AT_EPOCH>18989</REV_AT_EPOCH><BSTAR>.39884E-3</BSTAR><MEAN_MOTION_DOT>.158E-5</MEAN_MOTION_DOT><MEAN_MOTION_DDOT>0</MEAN_MOTION_DDOT></tleParameters></data></segment></body></omm>
<omm id="CCSDS_OMM_VERS" version="2.0">
<header><CREATION_DATE/><ORIGINATOR/></header><body><segment><metadata><OBJECT_NAME>ONEWEB-0174</OBJECT_NAME><OBJECT_ID>2021-025AG</OBJECT_ID><CENTER_NAME>EARTH</CENTER_NAME><REF_FRAME>TEME</REF_FRAME><TIME_SYSTEM>UTC</TIME_SYSTEM><MEAN_ELEMENT_THEORY>SGP4</MEAN_ELEMENT_THEORY></metadata><data><meanElements><EPOCH>2025-02-09T22:46:43.822848</EPOCH><MEAN_MOTION>13.13471044</MEAN_MOTION><ECCENTRICITY>.0001851</ECCENTRICITY><INCLINATION>87.8878</INCLINATION><RA_OF_ASC_NODE>58.0918</RA_OF_ASC_NODE><ARG_OF_PERICENTER>87.8545</ARG_OF_PERICENTER><MEAN_ANOMALY>272.2796</MEAN_ANOMALY></meanElements><tleParameters><EPHEMERIS_TYPE>0</EPHEMERIS_TYPE><CLASSIFICATION_TYPE>U</CLASSIFICATION_TYPE><NORAD_CAT_ID>48072</NORAD_CAT_ID><ELEMENT_SET_NO>999</ELEMENT_SET_NO><REV_AT_EPOCH>18921</REV_AT_EPOCH><BSTAR>.72813E-3</BSTAR><MEAN_MOTION_DOT>.279E-5</MEAN_MOTION_DOT><MEAN_MOTION_DDOT>0</MEAN_MOTION_DDOT></tleParameters></data></segment></body></omm>
<omm id="CCSDS_OMM_VERS" version="2.0">
<header><CREATION_DATE/><ORIGINATOR/></header><body><segment><metadata><OBJECT_NAME>ONEWEB-0175</OBJECT_NAME><OBJECT_ID>2021-025AH</OBJECT_ID><CENTER_NAME>EARTH</CENTER_NAME><REF_FRAME>TEME</REF_FRAME><TIME_SYSTEM>UTC</TIME_SYSTEM><MEAN_ELEMENT_THEORY>SGP4</MEAN_ELEMENT_THEORY></metadata><data><meanElements><EPOCH>2025-02-09T17:58:46.502976</EPOCH><MEAN_MOTION>13.13470069</MEAN_MOTION><ECCENTRICITY>.0002112</ECCENTRICITY><INCLINATION>87.8874</INCLINATION><RA_OF_ASC_NODE>58.1060</RA_OF_ASC_NODE><ARG_OF_PERICENTER>99.6027</ARG_OF_PERICENTER><MEAN_ANOMALY>260.5341</MEAN_ANOMALY></meanElements><tleParameters><EPHEMERIS_TYPE>0</EPHEMERIS_TYPE><CLASSIFICATION_TYPE>U</CLASSIFICATION_TYPE><NORAD_CAT_ID>48073</NORAD_CAT_ID><ELEMENT_SET_NO>999</ELEMENT_SET_NO><REV_AT_EPOCH>18884</REV_AT_EPOCH><BSTAR>-.14361E-3</BSTAR><MEAN_MOTION_DOT>-.4E-6</MEAN_MOTION_DOT><MEAN_MOTION_DDOT>0</MEAN_MOTION_DDOT></tleParameters></data></segment></body></omm>
<omm id="CCSDS_OMM_VERS" version="2.0">
<header><CREATION_DATE/><ORIGINATOR/></header><body><segment><metadata><OBJECT_NAME>ONEWEB-0177</OBJECT_NAME><OBJECT_ID>2021-025AJ</OBJECT_ID><CENTER_NAME>EARTH</CENTER_NAME><REF_FRAME>TEME</REF_FRAME><TIME_SYSTEM>UTC</TIME_SYSTEM><MEAN_ELEMENT_THEORY>SGP4</MEAN_ELEMENT_THEORY></metadata><data><meanElements><EPOCH>2025-02-09T18:17:02.136192</EPOCH><MEAN_MOTION>13.13467379</MEAN_MOTION><ECCENTRICITY>.0002054</ECCENTRICITY><INCLINATION>87.8875</INCLINATION><RA_OF_ASC_NODE>58.1150</RA_OF_ASC_NODE><ARG_OF_PERICENTER>83.7666</ARG_OF_PERICENTER><MEAN_ANOMALY>276.3697</MEAN_ANOMALY></meanElements><tleParameters><EPHEMERIS_TYPE>0</EPHEMERIS_TYPE><CLASSIFICATION_TYPE>U</CLASSIFICATION_TYPE><NORAD_CAT_ID>48074</NORAD_CAT_ID><ELEMENT_SET_NO>999</ELEMENT_SET_NO><REV_AT_EPOCH>18903</REV_AT_EPOCH><BSTAR>-.75662E-3</BSTAR><MEAN_MOTION_DOT>-.264E-5</MEAN_MOTION_DOT><MEAN_MOTION_DDOT>0</MEAN_MOTION_DDOT></tleParameters></data></segment></body></omm>
<omm id="CCSDS_OMM_VERS" version="2.0">
<header><CREATION_DATE/><ORIGINATOR/></header><body><segment><metadata><OBJECT_NAME>ONEWEB-0178</OBJECT_NAME><OBJECT_ID>2021-025AK</OBJECT_ID><CENTER_NAME>EARTH</CENTER_NAME><REF_FRAME>TEME</REF_FRAME><TIME_SYSTEM>UTC</TIME_SYSTEM><MEAN_ELEMENT_THEORY>SGP4</MEAN_ELEMENT_THEORY></metadata><data><meanElements><EPOCH>2025-02-09T18:42:23.146848</EPOCH><MEAN_MOTION>13.13471630</MEAN_MOTION><ECCENTRICITY>.0002038</ECCENTRICITY><INCLINATION>87.8880</INCLINATION><RA_OF_ASC_NODE>58.1456</RA_OF_ASC_NODE><ARG_OF_PERICENTER>86.8503</ARG_OF_PERICENTER><MEAN_ANOMALY>273.2860</MEAN_ANOMALY></meanElements><tleParameters><EPHEMERIS_TYPE>0</EPHEMERIS_TYPE><CLASSIFICATION_TYPE>U</CLASSIFICATION_TYPE><NORAD_CAT_ID>48075</NORAD_CAT_ID><ELEMENT_SET_NO>999</ELEMENT_SET_NO><REV_AT_EPOCH>18908</REV_AT_EPOCH><BSTAR>.47598E-4</BSTAR><MEAN_MOTION_DOT>.3E-6</MEAN_MOTION_DOT><MEAN_MOTION_DDOT>0</MEAN_MOTION_DDOT></tleParameters></data></segment></body></omm>
<omm id="CCSDS_OMM_VERS" version="2.0">
<header><CREATION_DATE/><ORIGINATOR/></header><body><segment><metadata><OBJECT_NAME>ONEWEB-0108</OBJECT_NAME><OBJECT_ID>2021-025AL</OBJECT_ID><CENTER_NAME>EARTH</CENTER_NAME><REF_FRAME>TEME</REF_FRAME><TIME_SYSTEM>UTC</TIME_SYSTEM><MEAN_ELEMENT_THEORY>SGP4</MEAN_ELEMENT_THEORY></metadata><data><meanElements><EPOCH>2025-02-09T23:14:08.465856</EPOCH><MEAN_MOTION>13.13467563</MEAN_MOTION><ECCENTRICITY>.0001645</ECCENTRICITY><INCLINATION>87.8875</INCLINATION><RA_OF_ASC_NODE>58.0700</RA_OF_ASC_NODE><ARG_OF_PERICENTER>92.0907</ARG_OF_PERICENTER><MEAN_ANOMALY>268.0410</MEAN_ANOMALY></meanElements><tleParameters><EPHEMERIS_TYPE>0</EPHEMERIS_TYPE><CLASSIFICATION_TYPE>U</CLASSIFICATION_TYPE><NORAD_CAT_ID>48076</NORAD_CAT_ID><ELEMENT_SET_NO>999</ELEMENT_SET_NO><REV_AT_EPOCH>18903</REV_AT_EPOCH><BSTAR>.33126E-3</BSTAR><MEAN_MOTION_DOT>.134E-5</MEAN_MOTION_DOT><MEAN_MOTION_DDOT>0</MEAN_MOTION_DDOT></tleParameters></data></segment></body></omm>
<omm id="CCSDS_OMM_VERS" version="2.0">
<header><CREATION_DATE/><ORIGINATOR/></header><body><segment><metadata><OBJECT_NAME>ONEWEB-0169</OBJECT_NAME><OBJECT_ID>2021-025AM</OBJECT_ID><CENTER_NAME>EARTH</CENTER_NAME><REF_FRAME>TEME</REF_FRAME><TIME_SYSTEM>UTC</TIME_SYSTEM><MEAN_ELEMENT_THEORY>SGP4</MEAN_ELEMENT_THEORY></metadata><data><meanElements><EPOCH>2025-02-09T18:30:45.701856</EPOCH><MEAN_MOTION>13.13471293</MEAN_MOTION><ECCENTRICITY>.0001608</ECCENTRICITY><INCLINATION>87.8878</INCLINATION><RA_OF_ASC_NODE>58.1250</RA_OF_ASC_NODE><ARG_OF_PERICENTER>92.3421</ARG_OF_PERICENTER><MEAN_ANOMALY>267.7892</MEAN_ANOMALY></meanElements><tleParameters><EPHEMERIS_TYPE>0</EPHEMERIS_TYPE><CLASSIFICATION_TYPE>U</CLASSIFICATION_TYPE><NORAD_CAT_ID>48077</NORAD_CAT_ID><ELEMENT_SET_NO>999</ELEMENT_SET_NO><REV_AT_EPOCH>18766</REV_AT_EPOCH><BSTAR>-.48066E-3</BSTAR><MEAN_MOTION_DOT>-.163E-5</MEAN_MOTION_DOT><MEAN_MOTION_DDOT>0</MEAN_MOTION_DDOT></tleParameters></data></segment></body></omm>

</ndm>
