ONEWEB-0171             
1 48070U 21025AE  25040.75866756 -.00000222  00000+0 -64336-3 0  9992
2 48070  87.8880  58.1492 0001973  93.1381 266.9974 13.13468796188978
ONEWEB-0172             
1 48071U 21025AF  25040.96657298  .00000158  00000+0  39884-3 0  9991
2 48071  87.8880  58.0742 0002027  90.2508 269.8853 13.13470169189893
ONEWEB-0174             
1 48072U 21025AG  25040.94911832  .00000279  00000+0  72813-3 0  9990
2 48072  87.8878  58.0918 0001851  87.8545 272.2796 13.13471044189216
ONEWEB-0175             
1 48073U 21025AH  25040.74914934 -.00000040  00000+0 -14361-3 0  9997
2 48073  87.8874  58.1060 0002112  99.6027 260.5341 13.13470069188849
ONEWEB-0177             
1 48074U 21025AJ  25040.76183028 -.00000264  00000+0 -75662-3 0  9991
2 48074  87.8875  58.1150 0002054  83.7666 276.3697 13.13467379189030
ONEWEB-0178             
1 48075U 21025AK  25040.77943457  .00000030  00000+0  47598-4 0  9990
2 48075  87.8880  58.1456 0002038  86.8503 273.2860 13.13471630189080
ONEWEB-0108             
1 48076U 21025AL  25040.96815354  .00000134  00000+0  33126-3 0  9992
2 48076  87.8875  58.0700 0001645  92.0907 268.0410 13.13467563189034
ONEWEB-0169             
1 48077U 21025AM  25040.77136229 -.00000163  00000+0 -48066-3 0  9992
2 48077  87.8878  58.1250 0001608  92.3421 267.7892 13.13471293187664
